[
  {
    "OBJECT_NAME": "STARLINK-32884",
    "OBJECT_ID": "25029F",
    "EPOCH": "2025-11-11T07:13:09.065568",
    "MEAN_MOTION": 15.30231591,
    "ECCENTRICITY": 0.0001209,
    "INCLINATION": 53.1601,
    "RA_OF_ASC_NODE": 60.0951,
    "ARG_OF_PERICENTER": 99.0437,
    "MEAN_ANOMALY": 261.07,
    "EPHEMERIS_TYPE": 0,
    "CLASSIFICATION_TYPE": "U",
    "NORAD_CAT_ID": 62953,
    "ELEMENT_SET_NO": 999,
    "REV_AT_EPOCH": 4323,
    "BSTAR": 0.0012364000000000001,
    "MEAN_MOTION_DOT": 0.00036474,
    "MEAN_MOTION_DDOT": 0.0,
    "TLE_LINE1": "1 62953U 25029F   25315.30079937  .00036474  00000+0  12364-2 0  9998",
    "TLE_LINE2": "2 62953  53.1601  60.0951 0001209  99.0437 261.0700 15.30231591 43236",
    "COMMENT": "Grouped by shell and plane from TLE"
  },
  {
    "OBJECT_NAME": "STARLINK-32874",
    "OBJECT_ID": "25029G",
    "EPOCH": "2025-11-11T06:53:24.042912",
    "MEAN_MOTION": 15.30241281,
    "ECCENTRICITY": 0.0002352,
    "INCLINATION": 53.1587,
    "RA_OF_ASC_NODE": 60.0099,
    "ARG_OF_PERICENTER": 77.1931,
    "MEAN_ANOMALY": 282.9333,
    "EPHEMERIS_TYPE": 0,
    "CLASSIFICATION_TYPE": "U",
    "NORAD_CAT_ID": 62954,
    "ELEMENT_SET_NO": 999,
    "REV_AT_EPOCH": 4323,
    "BSTAR": 0.0018201,
    "MEAN_MOTION_DOT": 0.0005401,
    "MEAN_MOTION_DDOT": 0.0,
    "TLE_LINE1": "1 62954U 25029G   25315.28708383  .00054010  00000+0  18201-2 0  9992",
    "TLE_LINE2": "2 62954  53.1587  60.0099 0002352  77.1931 282.9333 15.30241281 43230",
    "COMMENT": "Grouped by shell and plane from TLE"
  },
  {
    "OBJECT_NAME": "STARLINK-32880",
    "OBJECT_ID": "25029H",
    "EPOCH": "2025-11-11T07:23:02.284512",
    "MEAN_MOTION": 15.30221668,
    "ECCENTRICITY": 0.0001516,
    "INCLINATION": 53.1592,
    "RA_OF_ASC_NODE": 62.264,
    "ARG_OF_PERICENTER": 122.4611,
    "MEAN_ANOMALY": 237.6537,
    "EPHEMERIS_TYPE": 0,
    "CLASSIFICATION_TYPE": "U",
    "NORAD_CAT_ID": 62955,
    "ELEMENT_SET_NO": 999,
    "REV_AT_EPOCH": 4320,
    "BSTAR": 0.0013344000000000001,
    "MEAN_MOTION_DOT": 0.00039398,
    "MEAN_MOTION_DDOT": 0.0,
    "TLE_LINE1": "1 62955U 25029H   25315.30766533  .00039398  00000+0  13344-2 0  9992",
    "TLE_LINE2": "2 62955  53.1592  62.2640 0001516 122.4611 237.6537 15.30221668 43200",
    "COMMENT": "Grouped by shell and plane from TLE"
  },
  {
    "OBJECT_NAME": "STARLINK-32815",
    "OBJECT_ID": "25029J",
    "EPOCH": "2025-11-11T07:10:05.558880",
    "MEAN_MOTION": 15.30262816,
    "ECCENTRICITY": 0.000141,
    "INCLINATION": 53.1633,
    "RA_OF_ASC_NODE": 60.0847,
    "ARG_OF_PERICENTER": 90.2314,
    "MEAN_ANOMALY": 269.8848,
    "EPHEMERIS_TYPE": 0,
    "CLASSIFICATION_TYPE": "U",
    "NORAD_CAT_ID": 62956,
    "ELEMENT_SET_NO": 999,
    "REV_AT_EPOCH": 4323,
    "BSTAR": 0.0014386,
    "MEAN_MOTION_DOT": 0.00042575,
    "MEAN_MOTION_DDOT": 0.0,
    "TLE_LINE1": "1 62956U 25029J   25315.29867545  .00042575  00000+0  14386-2 0  9994",
    "TLE_LINE2": "2 62956  53.1633  60.0847 0001410  90.2314 269.8848 15.30262816 43232",
    "COMMENT": "Grouped by shell and plane from TLE"
  },
  {
    "OBJECT_NAME": "STARLINK-32879",
    "OBJECT_ID": "25029K",
    "EPOCH": "2025-11-11T06:23:55.830624",
    "MEAN_MOTION": 15.30237763,
    "ECCENTRICITY": 0.0004172,
    "INCLINATION": 53.1601,
    "RA_OF_ASC_NODE": 62.7295,
    "ARG_OF_PERICENTER": 91.5577,
    "MEAN_ANOMALY": 268.5902,
    "EPHEMERIS_TYPE": 0,
    "CLASSIFICATION_TYPE": "U",
    "NORAD_CAT_ID": 62957,
    "ELEMENT_SET_NO": 999,
    "REV_AT_EPOCH": 4318,
    "BSTAR": 0.0018028,
    "MEAN_MOTION_DOT": 0.0005349,
    "MEAN_MOTION_DDOT": 0.0,
    "TLE_LINE1": "1 62957U 25029K   25315.26661841  .00053490  00000+0  18028-2 0  9998",
    "TLE_LINE2": "2 62957  53.1601  62.7295 0004172  91.5577 268.5902 15.30237763 43181",
    "COMMENT": "Grouped by shell and plane from TLE"
  },
  {
    "OBJECT_NAME": "STARLINK-32885",
    "OBJECT_ID": "25029L",
    "EPOCH": "2025-11-11T07:11:37.008096",
    "MEAN_MOTION": 15.30193856,
    "ECCENTRICITY": 0.0002221,
    "INCLINATION": 53.1594,
    "RA_OF_ASC_NODE": 60.0867,
    "ARG_OF_PERICENTER": 108.6459,
    "MEAN_ANOMALY": 251.4783,
    "EPHEMERIS_TYPE": 0,
    "CLASSIFICATION_TYPE": "U",
    "NORAD_CAT_ID": 62958,
    "ELEMENT_SET_NO": 999,
    "REV_AT_EPOCH": 4322,
    "BSTAR": 0.002081,
    "MEAN_MOTION_DOT": 0.00061777,
    "MEAN_MOTION_DDOT": 0.0,
    "TLE_LINE1": "1 62958U 25029L   25315.29973389  .00061777  00000+0  20810-2 0  9994",
    "TLE_LINE2": "2 62958  53.1594  60.0867 0002221 108.6459 251.4783 15.30193856 43228",
    "COMMENT": "Grouped by shell and plane from TLE"
  },
  {
    "OBJECT_NAME": "STARLINK-32896",
    "OBJECT_ID": "25029M",
    "EPOCH": "2025-11-11T06:42:09.919008",
    "MEAN_MOTION": 15.30236348,
    "ECCENTRICITY": 0.0001755,
    "INCLINATION": 53.1557,
    "RA_OF_ASC_NODE": 62.8013,
    "ARG_OF_PERICENTER": 79.9131,
    "MEAN_ANOMALY": 280.2068,
    "EPHEMERIS_TYPE": 0,
    "CLASSIFICATION_TYPE": "U",
    "NORAD_CAT_ID": 62959,
    "ELEMENT_SET_NO": 999,
    "REV_AT_EPOCH": 4318,
    "BSTAR": 0.0015995999999999999,
    "MEAN_MOTION_DOT": 0.00047372,
    "MEAN_MOTION_DDOT": 0.0,
    "TLE_LINE1": "1 62959U 25029M   25315.27928147  .00047372  00000+0  15996-2 0  9999",
    "TLE_LINE2": "2 62959  53.1557  62.8013 0001755  79.9131 280.2068 15.30236348 43184",
    "COMMENT": "Grouped by shell and plane from TLE"
  },
  {
    "OBJECT_NAME": "STARLINK-32877",
    "OBJECT_ID": "25029N",
    "EPOCH": "2025-11-11T06:33:02.978496",
    "MEAN_MOTION": 15.30209894,
    "ECCENTRICITY": 9.77e-05,
    "INCLINATION": 53.1559,
    "RA_OF_ASC_NODE": 62.7621,
    "ARG_OF_PERICENTER": 82.1422,
    "MEAN_ANOMALY": 277.969,
    "EPHEMERIS_TYPE": 0,
    "CLASSIFICATION_TYPE": "U",
    "NORAD_CAT_ID": 62960,
    "ELEMENT_SET_NO": 999,
    "REV_AT_EPOCH": 4316,
    "BSTAR": 0.0015115999999999999,
    "MEAN_MOTION_DOT": 0.00044694,
    "MEAN_MOTION_DDOT": 0.0,
    "TLE_LINE1": "1 62960U 25029N   25315.27295114  .00044694  00000+0  15116-2 0  9990",
    "TLE_LINE2": "2 62960  53.1559  62.7621 0000977  82.1422 277.9690 15.30209894 43164",
    "COMMENT": "Grouped by shell and plane from TLE"
  },
  {
    "OBJECT_NAME": "STARLINK-32889",
    "OBJECT_ID": "25029P",
    "EPOCH": "2025-11-11T06:37:36.586560",
    "MEAN_MOTION": 15.30236382,
    "ECCENTRICITY": 0.0001543,
    "INCLINATION": 53.1576,
    "RA_OF_ASC_NODE": 62.7862,
    "ARG_OF_PERICENTER": 88.5374,
    "MEAN_ANOMALY": 271.5804,
    "EPHEMERIS_TYPE": 0,
    "CLASSIFICATION_TYPE": "U",
    "NORAD_CAT_ID": 62961,
    "ELEMENT_SET_NO": 999,
    "REV_AT_EPOCH": 4318,
    "BSTAR": 0.0022781000000000004,
    "MEAN_MOTION_DOT": 0.00067806,
    "MEAN_MOTION_DDOT": 0.0,
    "TLE_LINE1": "1 62961U 25029P   25315.27611790  .00067806  00000+0  22781-2 0  9999",
    "TLE_LINE2": "2 62961  53.1576  62.7862 0001543  88.5374 271.5804 15.30236382 43188",
    "COMMENT": "Grouped by shell and plane from TLE"
  },
  {
    "OBJECT_NAME": "STARLINK-32858",
    "OBJECT_ID": "25029Q",
    "EPOCH": "2025-11-11T06:46:31.959840",
    "MEAN_MOTION": 15.30233265,
    "ECCENTRICITY": 0.0003229,
    "INCLINATION": 53.1522,
    "RA_OF_ASC_NODE": 62.1137,
    "ARG_OF_PERICENTER": 80.8442,
    "MEAN_ANOMALY": 279.2924,
    "EPHEMERIS_TYPE": 0,
    "CLASSIFICATION_TYPE": "U",
    "NORAD_CAT_ID": 62962,
    "ELEMENT_SET_NO": 999,
    "REV_AT_EPOCH": 4317,
    "BSTAR": 0.0016299,
    "MEAN_MOTION_DOT": 0.00048282,
    "MEAN_MOTION_DDOT": 0.0,
    "TLE_LINE1": "1 62962U 25029Q   25315.28231435  .00048282  00000+0  16299-2 0  9999",
    "TLE_LINE2": "2 62962  53.1522  62.1137 0003229  80.8442 279.2924 15.30233265 43177",
    "COMMENT": "Grouped by shell and plane from TLE"
  },
  {
    "OBJECT_NAME": "STARLINK-32887",
    "OBJECT_ID": "25029S",
    "EPOCH": "2025-11-11T07:07:04.676160",
    "MEAN_MOTION": 15.30229593,
    "ECCENTRICITY": 0.0002117,
    "INCLINATION": 53.1596,
    "RA_OF_ASC_NODE": 60.0697,
    "ARG_OF_PERICENTER": 76.5583,
    "MEAN_ANOMALY": 283.5654,
    "EPHEMERIS_TYPE": 0,
    "CLASSIFICATION_TYPE": "U",
    "NORAD_CAT_ID": 62964,
    "ELEMENT_SET_NO": 999,
    "REV_AT_EPOCH": 4322,
    "BSTAR": 0.0014641,
    "MEAN_MOTION_DOT": 0.00043296,
    "MEAN_MOTION_DDOT": 0.0,
    "TLE_LINE1": "1 62964U 25029S   25315.29658190  .00043296  00000+0  14641-2 0  9992",
    "TLE_LINE2": "2 62964  53.1596  60.0697 0002117  76.5583 283.5654 15.30229593 43224",
    "COMMENT": "Grouped by shell and plane from TLE"
  },
  {
    "OBJECT_NAME": "STARLINK-32836",
    "OBJECT_ID": "25029T",
    "EPOCH": "2025-11-11T07:01:01.400448",
    "MEAN_MOTION": 15.30233122,
    "ECCENTRICITY": 0.0001342,
    "INCLINATION": 53.1611,
    "RA_OF_ASC_NODE": 60.0408,
    "ARG_OF_PERICENTER": 102.87,
    "MEAN_ANOMALY": 257.2451,
    "EPHEMERIS_TYPE": 0,
    "CLASSIFICATION_TYPE": "U",
    "NORAD_CAT_ID": 62965,
    "ELEMENT_SET_NO": 999,
    "REV_AT_EPOCH": 4322,
    "BSTAR": 0.0017039000000000002,
    "MEAN_MOTION_DOT": 0.00050501,
    "MEAN_MOTION_DDOT": 0.0,
    "TLE_LINE1": "1 62965U 25029T   25315.29237732  .00050501  00000+0  17039-2 0  9999",
    "TLE_LINE2": "2 62965  53.1611  60.0408 0001342 102.8700 257.2451 15.30233122 43222",
    "COMMENT": "Grouped by shell and plane from TLE"
  },
  {
    "OBJECT_NAME": "STARLINK-32888",
    "OBJECT_ID": "25029U",
    "EPOCH": "2025-11-11T00:12:16.974720",
    "MEAN_MOTION": 15.30203057,
    "ECCENTRICITY": 0.0001395,
    "INCLINATION": 53.1575,
    "RA_OF_ASC_NODE": 63.9706,
    "ARG_OF_PERICENTER": 86.7953,
    "MEAN_ANOMALY": 273.3207,
    "EPHEMERIS_TYPE": 0,
    "CLASSIFICATION_TYPE": "U",
    "NORAD_CAT_ID": 62966,
    "ELEMENT_SET_NO": 999,
    "REV_AT_EPOCH": 4314,
    "BSTAR": 0.0010952000000000002,
    "MEAN_MOTION_DOT": 0.0003222,
    "MEAN_MOTION_DDOT": 0.0,
    "TLE_LINE1": "1 62966U 25029U   25315.00852980  .00032220  00000+0  10952-2 0  9992",
    "TLE_LINE2": "2 62966  53.1575  63.9706 0001395  86.7953 273.3207 15.30203057 43146",
    "COMMENT": "Grouped by shell and plane from TLE"
  }
]